[{"OBJECT_NAME":"COSMOS 2547","OBJECT_ID":"2020-075A","EPOCH":"2026-03-06T15:29:03.642720","MEAN_MOTION":2.13100263,"ECCENTRICITY":0.00068747,"INCLINATION":64.5994,"RA_OF_ASC_NODE":195.8945,"ARG_OF_PERICENTER":230.4824,"MEAN_ANOMALY":129.4314,"EPHEMERIS_TYPE":0,"CLASSIFICATION_TYPE":"U","NORAD_CAT_ID":46805,"ELEMENT_SET_NO":999,"REV_AT_EPOCH":4172,"BSTAR":0,"MEAN_MOTION_DOT":2.6e-7,"MEAN_MOTION_DDOT":0},{"OBJECT_NAME":"GPS BIII-4","OBJECT_ID":"2020-078A","EPOCH":"2026-03-06T19:06:28.734624","MEAN_MOTION":2.00565568,"ECCENTRICITY":0.00683246,"INCLINATION":54.0012,"RA_OF_ASC_NODE":214.9287,"ARG_OF_PERICENTER":204.359,"MEAN_ANOMALY":325.2473,"EPHEMERIS_TYPE":0,"CLASSIFICATION_TYPE":"U","NORAD_CAT_ID":46826,"ELEMENT_SET_NO":999,"REV_AT_EPOCH":3945,"BSTAR":0,"MEAN_MOTION_DOT":2.2e-7,"MEAN_MOTION_DDOT":0},{"OBJECT_NAME":"GSAT0223 (GALILEO 27)","OBJECT_ID":"2021-116A","EPOCH":"2026-02-17T00:57:26.434656","MEAN_MOTION":1.70475508,"ECCENTRICITY":0.00028659,"INCLINATION":57.2005,"RA_OF_ASC_NODE":344.9238,"ARG_OF_PERICENTER":278.195,"MEAN_ANOMALY":264.6358,"EPHEMERIS_TYPE":0,"CLASSIFICATION_TYPE":"U","NORAD_CAT_ID":49809,"ELEMENT_SET_NO":999,"REV_AT_EPOCH":2613,"BSTAR":0,"MEAN_MOTION_DOT":-7.8e-7,"MEAN_MOTION_DDOT":0},{"OBJECT_NAME":"GSAT0224 (GALILEO 28)","OBJECT_ID":"2021-116B","EPOCH":"2026-03-05T06:58:38.412768","MEAN_MOTION":1.7047576,"ECCENTRICITY":0.0001942,"INCLINATION":57.1948,"RA_OF_ASC_NODE":344.4822,"ARG_OF_PERICENTER":295.2728,"MEAN_ANOMALY":253.6293,"EPHEMERIS_TYPE":0,"CLASSIFICATION_TYPE":"U","NORAD_CAT_ID":49810,"ELEMENT_SET_NO":999,"REV_AT_EPOCH":2643,"BSTAR":0,"MEAN_MOTION_DOT":-1.05e-6,"MEAN_MOTION_DDOT":0},{"OBJECT_NAME":"GOES 18","OBJECT_ID":"2022-021A","EPOCH":"2026-03-07T12:33:38.603808","MEAN_MOTION":1.00273463,"ECCENTRICITY":8.347e-5,"INCLINATION":0.0311,"RA_OF_ASC_NODE":63.1619,"ARG_OF_PERICENTER":347.888,"MEAN_ANOMALY":165.5845,"EPHEMERIS_TYPE":0,"CLASSIFICATION_TYPE":"U","NORAD_CAT_ID":51850,"ELEMENT_SET_NO":999,"REV_AT_EPOCH":557,"BSTAR":0,"MEAN_MOTION_DOT":9.5e-7,"MEAN_MOTION_DDOT":0},{"OBJECT_NAME":"COSMOS 2557 (706K)","OBJECT_ID":"2022-075A","EPOCH":"2026-03-07T06:42:30.345696","MEAN_MOTION":2.13101888,"ECCENTRICITY":0.00114198,"INCLINATION":64.3574,"RA_OF_ASC_NODE":318.077,"ARG_OF_PERICENTER":283.65,"MEAN_ANOMALY":76.2804,"EPHEMERIS_TYPE":0,"CLASSIFICATION_TYPE":"U","NORAD_CAT_ID":52984,"ELEMENT_SET_NO":999,"REV_AT_EPOCH":2854,"BSTAR":0,"MEAN_MOTION_DOT":-6.3e-7,"MEAN_MOTION_DDOT":0},{"OBJECT_NAME":"METEOSAT-12 (MTG-I1)","OBJECT_ID":"2022-170C","EPOCH":"2026-03-07T06:22:38.729856","MEAN_MOTION":1.00270148,"ECCENTRICITY":0.0001981,"INCLINATION":0.7039,"RA_OF_ASC_NODE":21.8437,"ARG_OF_PERICENTER":288.826,"MEAN_ANOMALY":309.6474,"EPHEMERIS_TYPE":0,"CLASSIFICATION_TYPE":"U","NORAD_CAT_ID":54743,"ELEMENT_SET_NO":999,"REV_AT_EPOCH":1195,"BSTAR":0,"MEAN_MOTION_DOT":-1.0e-7,"MEAN_MOTION_DDOT":0},{"OBJECT_NAME":"METEOR-M2 3","OBJECT_ID":"2023-091A","EPOCH":"2026-03-07T15:20:48.317568","MEAN_MOTION":14.24037435,"ECCENTRICITY":0.00050918,"INCLINATION":98.6218,"RA_OF_ASC_NODE":123.6374,"ARG_OF_PERICENTER":103.8707,"MEAN_ANOMALY":256.3039,"EPHEMERIS_TYPE":0,"CLASSIFICATION_TYPE":"U","NORAD_CAT_ID":57166,"ELEMENT_SET_NO":999,"REV_AT_EPOCH":14006,"BSTAR":2.3114155e-5,"MEAN_MOTION_DOT":1.0e-7,"MEAN_MOTION_DDOT":0},{"OBJECT_NAME":"COSMOS 2569 (703K)","OBJECT_ID":"2023-114A","EPOCH":"2026-03-04T14:37:03.256608","MEAN_MOTION":2.13103963,"ECCENTRICITY":0.00128986,"INCLINATION":65.242,"RA_OF_ASC_NODE":76.146,"ARG_OF_PERICENTER":291.625,"MEAN_ANOMALY":68.2783,"EPHEMERIS_TYPE":0,"CLASSIFICATION_TYPE":"U","NORAD_CAT_ID":57517,"ELEMENT_SET_NO":999,"REV_AT_EPOCH":2003,"BSTAR":0,"MEAN_MOTION_DOT":1.1e-7,"MEAN_MOTION_DDOT":0},{"OBJECT_NAME":"METEOR-M2 4","OBJECT_ID":"2024-039A","EPOCH":"2026-03-07T14:37:14.759904","MEAN_MOTION":14.22416808,"ECCENTRICITY":0.00081492,"INCLINATION":98.6905,"RA_OF_ASC_NODE":27.2462,"ARG_OF_PERICENTER":101.5166,"MEAN_ANOMALY":258.6928,"EPHEMERIS_TYPE":0,"CLASSIFICATION_TYPE":"U","NORAD_CAT_ID":59051,"ELEMENT_SET_NO":999,"REV_AT_EPOCH":10482,"BSTAR":5.4220206e-5,"MEAN_MOTION_DOT":7.7e-7,"MEAN_MOTION_DDOT":0},{"OBJECT_NAME":"GSAT0225 (GALILEO 29)","OBJECT_ID":"2024-079A","EPOCH":"2026-03-05T13:55:38.500608","MEAN_MOTION":1.70474989,"ECCENTRICITY":0.0002603,"INCLINATION":55.0507,"RA_OF_ASC_NODE":103.9743,"ARG_OF_PERICENTER":257.7426,"MEAN_ANOMALY":101.8321,"EPHEMERIS_TYPE":0,"CLASSIFICATION_TYPE":"U","NORAD_CAT_ID":59598,"ELEMENT_SET_NO":999,"REV_AT_EPOCH":1154,"BSTAR":0,"MEAN_MOTION_DOT":7.0e-8,"MEAN_MOTION_DDOT":0},{"OBJECT_NAME":"GSAT0227 (GALILEO 30)","OBJECT_ID":"2024-079C","EPOCH":"2026-03-03T10:02:13.643808","MEAN_MOTION":1.70474834,"ECCENTRICITY":3.59e-5,"INCLINATION":55.044,"RA_OF_ASC_NODE":104.0338,"ARG_OF_PERICENTER":68.5105,"MEAN_ANOMALY":291.5792,"EPHEMERIS_TYPE":0,"CLASSIFICATION_TYPE":"U","NORAD_CAT_ID":59600,"ELEMENT_SET_NO":999,"REV_AT_EPOCH":1156,"BSTAR":0,"MEAN_MOTION_DOT":1.2e-7,"MEAN_MOTION_DDOT":0},{"OBJECT_NAME":"GSAT0232 (GALILEO 32)","OBJECT_ID":"2024-167A","EPOCH":"2026-02-17T15:52:34.088160","MEAN_MOTION":1.70443939,"ECCENTRICITY":0.00036004,"INCLINATION":55.2225,"RA_OF_ASC_NODE":224.5881,"ARG_OF_PERICENTER":296.6314,"MEAN_ANOMALY":116.1306,"EPHEMERIS_TYPE":0,"CLASSIFICATION_TYPE":"U","NORAD_CAT_ID":61182,"ELEMENT_SET_NO":999,"REV_AT_EPOCH":826,"BSTAR":0,"MEAN_MOTION_DOT":6.9e-7,"MEAN_MOTION_DDOT":0},{"OBJECT_NAME":"GSAT0226 (GALILEO 31)","OBJECT_ID":"2024-167B","EPOCH":"2026-03-04T02:12:55.359360","MEAN_MOTION":1.70474186,"ECCENTRICITY":0.00015885,"INCLINATION":55.2176,"RA_OF_ASC_NODE":224.2005,"ARG_OF_PERICENTER":128.6581,"MEAN_ANOMALY":232.0353,"EPHEMERIS_TYPE":0,"CLASSIFICATION_TYPE":"U","NORAD_CAT_ID":61183,"ELEMENT_SET_NO":999,"REV_AT_EPOCH":906,"BSTAR":0,"MEAN_MOTION_DOT":1.1e-7,"MEAN_MOTION_DDOT":0},{"OBJECT_NAME":"GSAT0233 (GALILEO 33)","OBJECT_ID":"2025-302A","EPOCH":"2026-02-13T12:00:00.000000","MEAN_MOTION":1.70474578,"ECCENTRICITY":0.00030114,"INCLINATION":54.3935,"RA_OF_ASC_NODE":105.2952,"ARG_OF_PERICENTER":207.0582,"MEAN_ANOMALY":359.4109,"EPHEMERIS_TYPE":0,"CLASSIFICATION_TYPE":"U","NORAD_CAT_ID":67160,"ELEMENT_SET_NO":999,"REV_AT_EPOCH":2,"BSTAR":0,"MEAN_MOTION_DOT":-8.0e-8,"MEAN_MOTION_DDOT":0},{"OBJECT_NAME":"GSAT0234 (GALILEO 34)","OBJECT_ID":"2025-302C","EPOCH":"2026-02-13T12:00:00.000000","MEAN_MOTION":1.70475065,"ECCENTRICITY":0.00030814,"INCLINATION":54.3967,"RA_OF_ASC_NODE":105.2938,"ARG_OF_PERICENTER":266.8423,"MEAN_ANOMALY":119.7309,"EPHEMERIS_TYPE":0,"CLASSIFICATION_TYPE":"U","NORAD_CAT_ID":67162,"ELEMENT_SET_NO":999,"REV_AT_EPOCH":12,"BSTAR":0,"MEAN_MOTION_DOT":-8.0e-8,"MEAN_MOTION_DDOT":0}]
